OBJECT_NAME,OBJECT_ID,EPOCH,MEAN_MOTION,ECCENTRICITY,INCLINATION,RA_OF_ASC_NODE,ARG_OF_PERICENTER,MEAN_ANOMALY,EPHEMERIS_TYPE,CLASSIFICATION_TYPE,NORAD_CAT_ID,ELEMENT_SET_NO,REV_AT_EPOCH,BSTAR,MEAN_MOTION_DOT,MEAN_MOTION_DDOT
STARLINK-5484,2023-021A,2026-06-07T19:10:53.587776,14.98342645,.00027823,69.9996,337.3436,271.0106,89.0735,0,U,55628,999,18179,.14728988E-3,.1665E-4,0
STARLINK-5497,2023-021B,2026-06-08T04:53:43.786464,14.98331343,.00026715,69.9995,336.3504,257.2365,102.8496,0,U,55629,999,18185,.397845E-5,-.45E-6,0
STARLINK-5303,2023-021C,2026-06-07T22:17:10.113792,14.98331392,.00025405,69.9991,336.9916,269.3382,90.7486,0,U,55630,999,18181,.14751573E-4,.83E-6,0
STARLINK-5558,2023-021D,2026-06-07T21:41:06.662112,14.98331798,.00028137,69.9999,336.9022,267.8088,92.2749,0,U,55631,999,18181,.72607465E-4,.773E-5,0
STARLINK-5546,2023-021E,2026-06-07T22:05:08.974464,14.98328749,.00028982,69.9993,336.9606,270.9861,89.0966,0,U,55632,999,18181,.85756423E-4,.93E-5,0
STARLINK-5498,2023-021F,2026-06-07T21:59:09.067488,14.98341111,.00033717,69.9992,336.9468,270.8882,89.1891,0,U,55633,999,18181,.8026944E-4,.865E-5,0
STARLINK-5500,2023-021G,2026-06-08T04:29:55.511520,14.98321344,.00030896,69.9991,336.2887,270.9598,89.1207,0,U,55634,999,18184,-.32208722E-4,-.477E-5,0
STARLINK-5495,2023-021H,2026-06-08T03:59:18.603456,14.98329487,.00030239,69.9990,316.3447,267.9484,92.1329,0,U,55635,999,18234,.2066837E-4,.154E-5,0
STARLINK-5218,2023-021J,2026-06-07T21:47:06.804096,14.98330878,.00028546,69.9997,336.9173,268.5374,91.5458,0,U,55636,999,18181,.34283159E-4,.316E-5,0
STARLINK-5062,2023-021K,2026-06-08T04:23:21.211296,14.98328646,.00031008,69.9996,316.4008,268.7933,91.2871,0,U,55637,999,18234,.14514165E-4,.8E-6,0
STARLINK-5507,2023-021L,2026-06-07T21:53:08.077056,14.98316497,.00030828,69.9994,336.9321,273.0842,86.9964,0,U,55638,999,18181,.90690603E-4,.989E-5,0
STARLINK-5508,2023-021M,2026-06-08T03:53:32.711424,14.98323240,.00028915,69.9996,316.3278,271.3374,88.7454,0,U,55639,999,18234,-.66914882E-4,-.891E-5,0
STARLINK-5069,2023-021N,2026-06-08T03:47:17.433024,14.98328366,.00023478,69.9995,316.3110,268.7537,91.3353,0,U,55640,999,18234,-.17349025E-4,-.3E-5,0
STARLINK-5065,2023-021P,2026-06-08T04:29:21.812928,14.98328813,.00033885,69.9994,316.4130,269.1789,90.8982,0,U,55641,999,18234,.84040478E-4,.91E-5,0
STARLINK-5483,2023-021R,2026-06-07T19:04:34.773888,14.98328737,.00029943,69.9995,317.4493,270.7754,89.3062,0,U,55643,999,18228,-.16851813E-4,-.294E-5,0
STARLINK-5502,2023-021S,2026-06-08T04:11:20.123808,14.98329909,.00027076,69.9991,316.3708,246.7140,113.3734,0,U,55644,999,18234,-.33602764E-4,-.494E-5,0
STARLINK-5510,2023-021V,2026-06-08T03:23:14.586720,14.98331742,.00028555,69.9996,316.2530,269.6328,90.4504,0,U,55647,999,18234,.45114074E-4,.445E-5,0
STARLINK-5501,2023-021W,2026-06-08T04:05:19.311360,14.98329016,.00028885,69.9990,316.3563,268.2963,91.7865,0,U,55648,999,18234,-.210837E-5,-.118E-5,0
STARLINK-5469,2023-021X,2026-06-08T03:35:15.944640,14.98329842,.00028746,69.9991,316.2831,267.6244,92.4586,0,U,55649,999,18234,.9937983E-5,.26E-6,0
STARLINK-5494,2023-021Y,2026-06-08T03:53:18.000096,14.98328835,.00024829,69.9992,316.3266,268.6343,91.4531,0,U,55650,999,18234,-.10046317E-4,-.213E-5,0
STARLINK-5506,2023-021Z,2026-06-08T04:17:20.540544,14.98330277,.00031112,69.9993,316.3858,269.3166,90.7636,0,U,55651,999,18234,.58074204E-4,.6E-5,0
STARLINK-5487,2023-021AA,2026-06-08T03:41:16.721664,14.98329130,.0002935,69.9995,316.2978,266.8375,93.2449,0,U,55652,999,18234,-.2480709E-4,-.389E-5,0
STARLINK-5067,2023-021AB,2026-06-08T03:17:14.138880,14.98329957,.00027578,69.9994,316.2390,270.0085,90.0758,0,U,55653,999,18234,.17243407E-4,.113E-5,0
STARLINK-5070,2023-021AC,2026-06-07T18:58:34.195584,14.98330913,.00028894,69.9996,317.4410,267.1957,92.8871,0,U,55654,999,18228,-.5379814E-5,-.157E-5,0
STARLINK-5267,2023-021AD,2026-06-08T02:16:50.541888,14.98329410,.00032598,69.9994,296.6209,266.8651,93.2135,0,U,55655,999,18281,-.44744424E-4,-.627E-5,0
STARLINK-5328,2023-021AF,2026-06-07T18:28:11.807904,14.98320368,.00032341,69.9992,297.4895,268.9640,91.1148,0,U,55657,999,18277,-.12029652E-3,-.1528E-4,0
STARLINK-5307,2023-021AG,2026-06-08T03:29:15.329184,14.98328927,.00030049,69.9996,316.2688,265.7549,94.3267,0,U,55658,999,18234,-.19734203E-4,-.328E-5,0
STARLINK-5477,2023-021AH,2026-06-07T18:22:11.082720,14.98326573,.0002885,69.9993,297.4755,268.9195,91.1634,0,U,55659,999,18276,-.48105145E-4,-.667E-5,0
STARLINK-5467,2023-021AJ,2026-06-06T02:42:18.234720,14.98761148,.0003517,70.0008,301.3527,286.7525,73.3248,0,U,55660,999,18253,.52842E-2,.64253E-3,0
STARLINK-5475,2023-021AK,2026-06-07T17:58:08.441184,14.98329171,.00029171,69.9999,297.4185,270.5694,89.5131,0,U,55661,999,18277,.13721778E-4,.71E-6,0
