STARLINK-5484           
1 55628U 23021A   26158.79923134  .00001665  00000+0  14729-3 0  9997
2 55628  69.9996 337.3436 0002782 271.0106  89.0735 14.98342645181795
STARLINK-5497           
1 55629U 23021B   26159.20397901 -.00000045  00000+0  39784-5 0  9994
2 55629  69.9995 336.3504 0002671 257.2365 102.8496 14.98331343181858
STARLINK-5303           
1 55630U 23021C   26158.92858928  .00000083  00000+0  14752-4 0  9993
2 55630  69.9991 336.9916 0002540 269.3382  90.7486 14.98331392181811
STARLINK-5558           
1 55631U 23021D   26158.90354933  .00000773  00000+0  72607-4 0  9998
2 55631  69.9999 336.9022 0002813 267.8088  92.2749 14.98331798181816
STARLINK-5546           
1 55632U 23021E   26158.92024276  .00000930  00000+0  85756-4 0  9999
2 55632  69.9993 336.9606 0002898 270.9861  89.0966 14.98328749181813
STARLINK-5498           
1 55633U 23021F   26158.91607717  .00000865  00000+0  80269-4 0  9997
2 55633  69.9992 336.9468 0003371 270.8882  89.1891 14.98341111181814
STARLINK-5500           
1 55634U 23021G   26159.18744805 -.00000477  00000+0 -32209-4 0  9990
2 55634  69.9991 336.2887 0003089 270.9598  89.1207 14.98321344181843
STARLINK-5495           
1 55635U 23021H   26159.16618754  .00000154  00000+0  20668-4 0  9998
2 55635  69.9990 316.3447 0003023 267.9484  92.1329 14.98329487182343
STARLINK-5218           
1 55636U 23021J   26158.90771764  .00000316  00000+0  34283-4 0  9999
2 55636  69.9997 336.9173 0002854 268.5374  91.5458 14.98330878181814
STARLINK-5062           
1 55637U 23021K   26159.18288439  .00000080  00000+0  14514-4 0  9996
2 55637  69.9996 316.4008 0003100 268.7933  91.2871 14.98328646182347
STARLINK-5507           
1 55638U 23021L   26158.91189904  .00000989  00000+0  90691-4 0  9992
2 55638  69.9994 336.9321 0003082 273.0842  86.9964 14.98316497181814
STARLINK-5508           
1 55639U 23021M   26159.16218416 -.00000891  00000+0 -66915-4 0  9998
2 55639  69.9996 316.3278 0002891 271.3374  88.7454 14.98323240182345
STARLINK-5069           
1 55640U 23021N   26159.15784066 -.00000300  00000+0 -17349-4 0  9990
2 55640  69.9995 316.3110 0002347 268.7537  91.3353 14.98328366182340
STARLINK-5065           
1 55641U 23021P   26159.18705802  .00000910  00000+0  84040-4 0  9992
2 55641  69.9994 316.4130 0003388 269.1789  90.8982 14.98328813182342
STARLINK-5483           
1 55643U 23021R   26158.79484692 -.00000294  00000+0 -16852-4 0  9994
2 55643  69.9995 317.4493 0002994 270.7754  89.3062 14.98328737182280
STARLINK-5502           
1 55644U 23021S   26159.17453847 -.00000494  00000+0 -33603-4 0  9991
2 55644  69.9991 316.3708 0002707 246.7140 113.3734 14.98329909182341
STARLINK-5510           
1 55647U 23021V   26159.14114105  .00000445  00000+0  45114-4 0  9996
2 55647  69.9996 316.2530 0002855 269.6328  90.4504 14.98331742182345
STARLINK-5501           
1 55648U 23021W   26159.17036240 -.00000118  00000+0 -21084-5 0  9993
2 55648  69.9990 316.3563 0002888 268.2963  91.7865 14.98329016182348
STARLINK-5469           
1 55649U 23021X   26159.14949010  .00000026  00000+0  99380-5 0  9999
2 55649  69.9991 316.2831 0002874 267.6244  92.4586 14.98329842182342
STARLINK-5494           
1 55650U 23021Y   26159.16201389 -.00000213  00000+0 -10046-4 0  9994
2 55650  69.9992 316.3266 0002482 268.6343  91.4531 14.98328835182344
STARLINK-5506           
1 55651U 23021Z   26159.17870996  .00000600  00000+0  58074-4 0  9993
2 55651  69.9993 316.3858 0003111 269.3166  90.7636 14.98330277182345
STARLINK-5487           
1 55652U 23021AA  26159.15366576 -.00000389  00000+0 -24807-4 0  9999
2 55652  69.9995 316.2978 0002935 266.8375  93.2449 14.98329130182343
STARLINK-5067           
1 55653U 23021AB  26159.13696920  .00000113  00000+0  17243-4 0  9996
2 55653  69.9994 316.2390 0002757 270.0085  90.0758 14.98329957182343
STARLINK-5070           
1 55654U 23021AC  26158.79067356 -.00000157  00000+0 -53798-5 0  9999
2 55654  69.9996 317.4410 0002889 267.1957  92.8871 14.98330913182286
STARLINK-5267           
1 55655U 23021AD  26159.09502942 -.00000627  00000+0 -44744-4 0  9991
2 55655  69.9994 296.6209 0003259 266.8651  93.2135 14.98329410182815
STARLINK-5328           
1 55657U 23021AF  26158.76958111 -.00001528  00000+0 -12030-3 0  9992
2 55657  69.9992 297.4895 0003234 268.9640  91.1148 14.98320368182778
STARLINK-5307           
1 55658U 23021AG  26159.14531631 -.00000328  00000+0 -19734-4 0  9996
2 55658  69.9996 316.2688 0003004 265.7549  94.3267 14.98328927182340
STARLINK-5477           
1 55659U 23021AH  26158.76540605 -.00000667  00000+0 -48105-4 0  9995
2 55659  69.9993 297.4755 0002885 268.9195  91.1634 14.98326573182765
STARLINK-5467           
1 55660U 23021AJ  26157.11271105  .00064253  00000+0  52842-2 0  9991
2 55660  70.0008 301.3527 0003517 286.7525  73.3248 14.98761148182536
STARLINK-5475           
1 55661U 23021AK  26158.74870881  .00000071  00000+0  13722-4 0  9992
2 55661  69.9999 297.4185 0002917 270.5694  89.5131 14.98329171182771
